start=new Date('2022-10-02T00:00:00.000Z').valueOf();
sats=[{"MEAN_ELEMENT_THEORY":"SGP4","OBJECT_TYPE":"PAYLOAD","LAUNCH_DATE":"2022-09-24","CLASSIFICATION_TYPE":"U","REF_FRAME":"TEME","PERIOD":"90.763","ARG_OF_PERICENTER":"73.1991","DECAY_DATE":null,"ELEMENT_SET_NO":"999","REV_AT_EPOCH":"130","MEAN_MOTION_DOT":"-0.01315039","INCLINATION":"53.2185","TLE_LINE1":"1 53931U 22119AX  22274.91667824 -.01315039  47820-3 -50281-2 0  9992","TIME_SYSTEM":"UTC","SITE":"AFETR","EPHEMERIS_TYPE":"0","ECCENTRICITY":"0.00188730","RCS_SIZE":null,"FILE":"3588844","PERIAPSIS":"299.355","EPOCH":"2022-10-01T22:00:00.999936","OBJECT_NAME":"STARLINK-5015","CENTER_NAME":"EARTH","MEAN_ANOMALY":"168.6234","NORAD_CAT_ID":"53931","APOAPSIS":"324.607","RA_OF_ASC_NODE":"218.7867","TLE_LINE2":"2 53931  53.2185 218.7867 0018873  73.1991 168.6234 15.86544672  1305","BSTAR":"-0.00502810000000","OBJECT_ID":"2022-119AX","SEMIMAJOR_AXIS":"6690.116","MEAN_MOTION":"15.86544672","GP_ID":"213980579","MEAN_MOTION_DDOT":"0.0004782000000","COUNTRY_CODE":"US"},{"MEAN_MOTION":"15.86539776","GP_ID":"213951050","MEAN_MOTION_DDOT":"0.0004851400000","COUNTRY_CODE":"US","OBJECT_NAME":"STARLINK-4772","CENTER_NAME":"EARTH","EPOCH":"2022-10-01T22:00:00.999936","PERIAPSIS":"299.048","FILE":"3588676","NORAD_CAT_ID":"53932","MEAN_ANOMALY":"172.2061","RA_OF_ASC_NODE":"218.7882","APOAPSIS":"324.941","OBJECT_ID":"2022-119AY","SEMIMAJOR_AXIS":"6690.130","TLE_LINE2":"2 53932  53.2185 218.7882 0019352  69.2318 172.2061 15.86539776  1527","BSTAR":"-0.00506590000000","INCLINATION":"53.2185","MEAN_MOTION_DOT":"-0.01325509","TIME_SYSTEM":"UTC","TLE_LINE1":"1 53932U 22119AY  22274.91667824 -.01325509  48514-3 -50659-2 0  9996","ECCENTRICITY":"0.00193520","SITE":"AFETR","EPHEMERIS_TYPE":"0","RCS_SIZE":null,"OBJECT_TYPE":"PAYLOAD","MEAN_ELEMENT_THEORY":"SGP4","CLASSIFICATION_TYPE":"U","LAUNCH_DATE":"2022-09-24","REF_FRAME":"TEME","REV_AT_EPOCH":"152","ELEMENT_SET_NO":"999","DECAY_DATE":null,"PERIOD":"90.764","ARG_OF_PERICENTER":"69.2318"},{"INCLINATION":"53.2185","MEAN_MOTION_DOT":"-0.01531338","TLE_LINE1":"1 53933U 22119AZ  22274.91667824 -.01531338  63191-3 -58351-2 0  9991","TIME_SYSTEM":"UTC","EPHEMERIS_TYPE":"0","SITE":"AFETR","ECCENTRICITY":"0.00194730","RCS_SIZE":null,"MEAN_ELEMENT_THEORY":"SGP4","OBJECT_TYPE":"PAYLOAD","LAUNCH_DATE":"2022-09-24","CLASSIFICATION_TYPE":"U","REF_FRAME":"TEME","ARG_OF_PERICENTER":"65.9536","PERIOD":"90.758","DECAY_DATE":null,"ELEMENT_SET_NO":"999","REV_AT_EPOCH":"152","MEAN_MOTION":"15.86630812","GP_ID":"213951044","MEAN_MOTION_DDOT":"0.0006319100000","COUNTRY_CODE":"US","FILE":"3588676","PERIAPSIS":"298.712","EPOCH":"2022-10-01T22:00:00.999936","CENTER_NAME":"EARTH","OBJECT_NAME":"STARLINK-4782","NORAD_CAT_ID":"53933","MEAN_ANOMALY":"174.9556","APOAPSIS":"324.766","RA_OF_ASC_NODE":"218.7887","TLE_LINE2":"2 53933  53.2185 218.7887 0019473  65.9536 174.9556 15.86630812  1523","BSTAR":"-0.00583510000000","SEMIMAJOR_AXIS":"6689.874","OBJECT_ID":"2022-119AZ"},{"ECCENTRICITY":"0.00194780","SITE":"AFETR","EPHEMERIS_TYPE":"0","RCS_SIZE":null,"INCLINATION":"53.2185","MEAN_MOTION_DOT":"-0.01526610","TIME_SYSTEM":"UTC","TLE_LINE1":"1 53934U 22119BA  22274.91667824 -.01526610  62870-3 -57991-2 0  9991","REF_FRAME":"TEME","ELEMENT_SET_NO":"999","REV_AT_EPOCH":"152","PERIOD":"90.755","ARG_OF_PERICENTER":"66.0959","DECAY_DATE":null,"OBJECT_TYPE":"PAYLOAD","MEAN_ELEMENT_THEORY":"SGP4","CLASSIFICATION_TYPE":"U","LAUNCH_DATE":"2022-09-24","MEAN_MOTION_DDOT":"0.0006287000000","COUNTRY_CODE":"US","MEAN_MOTION":"15.86692741","GP_ID":"213951046","APOAPSIS":"324.595","RA_OF_ASC_NODE":"218.7868","OBJECT_ID":"2022-119BA","SEMIMAJOR_AXIS":"6689.700","BSTAR":"-0.00579910000000","TLE_LINE2":"2 53934  53.2185 218.7868 0019478  66.0959 176.0037 15.86692741  1525","EPOCH":"2022-10-01T22:00:00.999936","CENTER_NAME":"EARTH","OBJECT_NAME":"STARLINK-4775","FILE":"3588676","PERIAPSIS":"298.534","NORAD_CAT_ID":"53934","MEAN_ANOMALY":"176.0037"},{"GP_ID":"213951322","MEAN_MOTION":"15.86721830","COUNTRY_CODE":"US","MEAN_MOTION_DDOT":"0.0006293800000","NORAD_CAT_ID":"53935","MEAN_ANOMALY":"176.5573","EPOCH":"2022-10-01T22:00:00.999936","CENTER_NAME":"EARTH","OBJECT_NAME":"STARLINK-5000","FILE":"3588676","PERIAPSIS":"298.355","SEMIMAJOR_AXIS":"6689.618","OBJECT_ID":"2022-119BB","BSTAR":"-0.00579200000000","TLE_LINE2":"2 53935  53.2185 218.7849 0019624  66.2022 176.5573 15.86721830  1523","APOAPSIS":"324.611","RA_OF_ASC_NODE":"218.7849","TIME_SYSTEM":"UTC","TLE_LINE1":"1 53935U 22119BB  22274.91667824 -.01527288  62938-3 -57920-2 0  9991","INCLINATION":"53.2185","MEAN_MOTION_DOT":"-0.01527288","RCS_SIZE":null,"ECCENTRICITY":"0.00196240","EPHEMERIS_TYPE":"0","SITE":"AFETR","CLASSIFICATION_TYPE":"U","LAUNCH_DATE":"2022-09-24","OBJECT_TYPE":"PAYLOAD","MEAN_ELEMENT_THEORY":"SGP4","ELEMENT_SET_NO":"999","REV_AT_EPOCH":"152","ARG_OF_PERICENTER":"66.2022","PERIOD":"90.753","DECAY_DATE":null,"REF_FRAME":"TEME"},{"SEMIMAJOR_AXIS":"6689.639","OBJECT_ID":"2022-119BC","TLE_LINE2":"2 53936  53.2185 218.7864 0019572  66.1399 176.1744 15.86714399  1527","BSTAR":"-0.00579850000000","APOAPSIS":"324.597","RA_OF_ASC_NODE":"218.7864","MEAN_ANOMALY":"176.1744","NORAD_CAT_ID":"53936","EPOCH":"2022-10-01T22:00:00.999936","OBJECT_NAME":"STARLINK-4791","CENTER_NAME":"EARTH","FILE":"3588672","PERIAPSIS":"298.411","COUNTRY_CODE":"US","MEAN_MOTION_DDOT":"0.0006301000000","GP_ID":"213951327","MEAN_MOTION":"15.86714399","ELEMENT_SET_NO":"999","REV_AT_EPOCH":"152","PERIOD":"90.754","ARG_OF_PERICENTER":"66.1399","DECAY_DATE":null,"REF_FRAME":"TEME","CLASSIFICATION_TYPE":"U","LAUNCH_DATE":"2022-09-24","OBJECT_TYPE":"PAYLOAD","MEAN_ELEMENT_THEORY":"SGP4","RCS_SIZE":null,"ECCENTRICITY":"0.00195720","SITE":"AFETR","EPHEMERIS_TYPE":"0","TIME_SYSTEM":"UTC","TLE_LINE1":"1 53936U 22119BC  22274.91667824 -.01528298  63010-3 -57985-2 0  9997","INCLINATION":"53.2185","MEAN_MOTION_DOT":"-0.01528298"},{"CLASSIFICATION_TYPE":"U","LAUNCH_DATE":"2022-09-24","OBJECT_TYPE":"PAYLOAD","MEAN_ELEMENT_THEORY":"SGP4","REV_AT_EPOCH":"152","ELEMENT_SET_NO":"999","DECAY_DATE":null,"PERIOD":"90.761","ARG_OF_PERICENTER":"70.3165","REF_FRAME":"TEME","TIME_SYSTEM":"UTC","TLE_LINE1":"1 53937U 22119BD  22274.91667824 -.01260193  44263-3 -48094-2 0  9995","MEAN_MOTION_DOT":"-0.01260193","INCLINATION":"53.2185","RCS_SIZE":null,"ECCENTRICITY":"0.00186750","EPHEMERIS_TYPE":"0","SITE":"AFETR","NORAD_CAT_ID":"53937","MEAN_ANOMALY":"172.6451","CENTER_NAME":"EARTH","OBJECT_NAME":"STARLINK-4765","EPOCH":"2022-10-01T22:00:00.999936","PERIAPSIS":"299.389","FILE":"3588672","SEMIMAJOR_AXIS":"6690.018","OBJECT_ID":"2022-119BD","BSTAR":"-0.00480940000000","TLE_LINE2":"2 53937  53.2185 218.7845 0018675  70.3165 172.6451 15.86579568  1521","RA_OF_ASC_NODE":"218.7845","APOAPSIS":"324.376","GP_ID":"213951332","MEAN_MOTION":"15.86579568","COUNTRY_CODE":"US","MEAN_MOTION_DDOT":"0.0004426300000"}];
